start=new Date('2022-07-24T00:00:00.000Z').valueOf();
sats=[{"SITE":"AFETR","REV_AT_EPOCH":"9695","EPOCH":"2022-07-23T13:08:31.003584","TIME_SYSTEM":"UTC","BSTAR":"0.00019914000000","MEAN_MOTION":"15.06415616","REF_FRAME":"TEME","APOAPSIS":"548.511","FILE":"3520495","MEAN_ELEMENT_THEORY":"SGP4","PERIOD":"95.591","TLE_LINE2":"2 46746  53.0522 150.4196 0001942  57.6258 302.4919 15.06415616 96953","RA_OF_ASC_NODE":"150.4196","TLE_LINE1":"1 46746U 20074H   22204.54758106  .00002687  00000-0  19914-3 0  9996","MEAN_ANOMALY":"302.4919","CENTER_NAME":"EARTH","MEAN_MOTION_DDOT":"0.0000000000000","PERIAPSIS":"545.821","EPHEMERIS_TYPE":"0","MEAN_MOTION_DOT":"0.00002687","ECCENTRICITY":"0.00019420","SEMIMAJOR_AXIS":"6925.301","GP_ID":"208712703","COUNTRY_CODE":"US","NORAD_CAT_ID":"46746","RCS_SIZE":"LARGE","ARG_OF_PERICENTER":"57.6258","INCLINATION":"53.0522","OBJECT_ID":"2020-074H","CLASSIFICATION_TYPE":"U","DECAY_DATE":null,"OBJECT_NAME":"STARLINK-1905","LAUNCH_DATE":"2020-10-24","OBJECT_TYPE":"PAYLOAD","ELEMENT_SET_NO":"999"},{"TLE_LINE2":"2 46747  53.0550 149.0166 0001554  73.1460 286.9699 15.06396179 96990","PERIOD":"95.592","MEAN_ELEMENT_THEORY":"SGP4","MEAN_ANOMALY":"286.9699","RA_OF_ASC_NODE":"149.0166","TLE_LINE1":"1 46747U 20074J   22204.86087435 -.00000613  00000-0 -22284-4 0  9996","PERIAPSIS":"546.149","MEAN_MOTION_DDOT":"0.0000000000000","CENTER_NAME":"EARTH","EPHEMERIS_TYPE":"0","ECCENTRICITY":"0.00015540","MEAN_MOTION_DOT":"-0.00000613","SITE":"AFETR","REV_AT_EPOCH":"9699","EPOCH":"2022-07-23T20:39:39.543840","BSTAR":"-0.00002228400000","TIME_SYSTEM":"UTC","MEAN_MOTION":"15.06396179","REF_FRAME":"TEME","APOAPSIS":"548.301","FILE":"3520602","CLASSIFICATION_TYPE":"U","DECAY_DATE":null,"OBJECT_NAME":"STARLINK-1908","LAUNCH_DATE":"2020-10-24","ELEMENT_SET_NO":"999","OBJECT_TYPE":"PAYLOAD","SEMIMAJOR_AXIS":"6925.360","COUNTRY_CODE":"US","GP_ID":"208736480","ARG_OF_PERICENTER":"73.1460","RCS_SIZE":"LARGE","NORAD_CAT_ID":"46747","OBJECT_ID":"2020-074J","INCLINATION":"53.0550"},{"ECCENTRICITY":"0.00013970","MEAN_MOTION_DOT":"0.00000626","EPHEMERIS_TYPE":"0","PERIAPSIS":"546.281","MEAN_MOTION_DDOT":"0.0000000000000","CENTER_NAME":"EARTH","MEAN_ANOMALY":"283.7108","TLE_LINE1":"1 46748U 20074K   22204.86825490  .00000626  00000-0  60955-4 0  9997","RA_OF_ASC_NODE":"148.9806","TLE_LINE2":"2 46748  53.0535 148.9806 0001397  76.4037 283.7108 15.06388695 96998","PERIOD":"95.593","MEAN_ELEMENT_THEORY":"SGP4","APOAPSIS":"548.216","FILE":"3520602","REF_FRAME":"TEME","MEAN_MOTION":"15.06388695","BSTAR":"0.00006095500000","TIME_SYSTEM":"UTC","EPOCH":"2022-07-23T20:50:17.223360","REV_AT_EPOCH":"9699","SITE":"AFETR","ELEMENT_SET_NO":"999","OBJECT_TYPE":"PAYLOAD","LAUNCH_DATE":"2020-10-24","OBJECT_NAME":"STARLINK-1910","DECAY_DATE":null,"CLASSIFICATION_TYPE":"U","OBJECT_ID":"2020-074K","INCLINATION":"53.0535","ARG_OF_PERICENTER":"76.4037","RCS_SIZE":"LARGE","NORAD_CAT_ID":"46748","COUNTRY_CODE":"US","GP_ID":"208735728","SEMIMAJOR_AXIS":"6925.383"},{"OBJECT_TYPE":"PAYLOAD","ELEMENT_SET_NO":"999","LAUNCH_DATE":"2020-10-24","CLASSIFICATION_TYPE":"U","OBJECT_NAME":"STARLINK-1911","DECAY_DATE":null,"RCS_SIZE":"LARGE","NORAD_CAT_ID":"46749","ARG_OF_PERICENTER":"66.3458","INCLINATION":"53.0548","OBJECT_ID":"2020-074L","GP_ID":"208735978","COUNTRY_CODE":"US","SEMIMAJOR_AXIS":"6925.383","MEAN_MOTION_DOT":"0.00000410","ECCENTRICITY":"0.00016930","RA_OF_ASC_NODE":"148.9526","TLE_LINE1":"1 46749U 20074L   22204.87562356  .00000410  00000-0  46452-4 0  9995","MEAN_ANOMALY":"293.7709","MEAN_ELEMENT_THEORY":"SGP4","PERIOD":"95.593","TLE_LINE2":"2 46749  53.0548 148.9526 0001693  66.3458 293.7709 15.06388686 96994","EPHEMERIS_TYPE":"0","CENTER_NAME":"EARTH","MEAN_MOTION_DDOT":"0.0000000000000","PERIAPSIS":"546.076","FILE":"3520602","APOAPSIS":"548.421","REF_FRAME":"TEME","EPOCH":"2022-07-23T21:00:53.875584","REV_AT_EPOCH":"9699","SITE":"AFETR","MEAN_MOTION":"15.06388686","BSTAR":"0.00004645200000","TIME_SYSTEM":"UTC"},{"ECCENTRICITY":"0.00013920","MEAN_MOTION_DOT":"0.00001105","TLE_LINE2":"2 46751  53.0548 148.9647 0001392  75.2738 284.8405 15.06387295 96996","MEAN_ELEMENT_THEORY":"SGP4","PERIOD":"95.593","MEAN_ANOMALY":"284.8405","TLE_LINE1":"1 46751U 20074N   22204.87194194  .00001105  00000-0  93105-4 0  9998","RA_OF_ASC_NODE":"148.9647","MEAN_MOTION_DDOT":"0.0000000000000","PERIAPSIS":"546.288","CENTER_NAME":"EARTH","EPHEMERIS_TYPE":"0","REF_FRAME":"TEME","FILE":"3520602","APOAPSIS":"548.217","SITE":"AFETR","REV_AT_EPOCH":"9699","EPOCH":"2022-07-23T20:55:35.783616","BSTAR":"0.00009310500000","TIME_SYSTEM":"UTC","MEAN_MOTION":"15.06387295","LAUNCH_DATE":"2020-10-24","ELEMENT_SET_NO":"999","OBJECT_TYPE":"PAYLOAD","CLASSIFICATION_TYPE":"U","DECAY_DATE":null,"OBJECT_NAME":"STARLINK-1920","ARG_OF_PERICENTER":"75.2738","RCS_SIZE":"LARGE","NORAD_CAT_ID":"46751","OBJECT_ID":"2020-074N","INCLINATION":"53.0548","SEMIMAJOR_AXIS":"6925.387","COUNTRY_CODE":"US","GP_ID":"208736230"},{"ELEMENT_SET_NO":"999","OBJECT_TYPE":"PAYLOAD","LAUNCH_DATE":"2020-10-24","CLASSIFICATION_TYPE":"U","OBJECT_NAME":"STARLINK-1921","DECAY_DATE":null,"ARG_OF_PERICENTER":"62.1699","NORAD_CAT_ID":"46752","RCS_SIZE":"LARGE","OBJECT_ID":"2020-074P","INCLINATION":"53.0546","COUNTRY_CODE":"US","GP_ID":"208736980","SEMIMAJOR_AXIS":"6925.384","ECCENTRICITY":"0.00018180","MEAN_MOTION_DOT":"-0.00001159","MEAN_ANOMALY":"297.9474","TLE_LINE1":"1 46752U 20074P   22204.88299376 -.00001159  00000-0 -58940-4 0  9997","RA_OF_ASC_NODE":"148.8968","TLE_LINE2":"2 46752  53.0546 148.8968 0001818  62.1699 297.9474 15.06388506 96991","PERIOD":"95.593","MEAN_ELEMENT_THEORY":"SGP4","EPHEMERIS_TYPE":"0","PERIAPSIS":"545.990","MEAN_MOTION_DDOT":"0.0000000000000","CENTER_NAME":"EARTH","FILE":"3520602","APOAPSIS":"548.508","REF_FRAME":"TEME","EPOCH":"2022-07-23T21:11:30.660864","SITE":"AFETR","REV_AT_EPOCH":"9699","MEAN_MOTION":"15.06388506","BSTAR":"-0.00005894000000","TIME_SYSTEM":"UTC"},{"FILE":"3520602","APOAPSIS":"548.454","REF_FRAME":"TEME","MEAN_MOTION":"15.06396339","BSTAR":"0.00027346000000","TIME_SYSTEM":"UTC","EPOCH":"2022-07-23T14:01:35.105376","SITE":"AFETR","REV_AT_EPOCH":"9695","ECCENTRICITY":"0.00017750","MEAN_MOTION_DOT":"0.00003794","EPHEMERIS_TYPE":"0","PERIAPSIS":"545.996","MEAN_MOTION_DDOT":"0.0000000000000","CENTER_NAME":"EARTH","MEAN_ANOMALY":"290.7001","TLE_LINE1":"1 46753U 20074Q   22204.58443409  .00003794  00000-0  27346-3 0  9993","RA_OF_ASC_NODE":"150.2462","TLE_LINE2":"2 46753  53.0539 150.2462 0001775  69.4178 290.7001 15.06396339 96950","MEAN_ELEMENT_THEORY":"SGP4","PERIOD":"95.592","OBJECT_ID":"2020-074Q","INCLINATION":"53.0539","ARG_OF_PERICENTER":"69.4178","RCS_SIZE":"LARGE","NORAD_CAT_ID":"46753","COUNTRY_CODE":"US","GP_ID":"208735229","SEMIMAJOR_AXIS":"6925.360","ELEMENT_SET_NO":"999","OBJECT_TYPE":"PAYLOAD","LAUNCH_DATE":"2020-10-24","OBJECT_NAME":"STARLINK-1922","DECAY_DATE":null,"CLASSIFICATION_TYPE":"U"},{"COUNTRY_CODE":"US","GP_ID":"208735479","SEMIMAJOR_AXIS":"6925.337","OBJECT_ID":"2020-074R","INCLINATION":"53.0550","ARG_OF_PERICENTER":"81.9616","RCS_SIZE":"LARGE","NORAD_CAT_ID":"46754","OBJECT_NAME":"STARLINK-1923","DECAY_DATE":null,"CLASSIFICATION_TYPE":"U","ELEMENT_SET_NO":"999","OBJECT_TYPE":"PAYLOAD","LAUNCH_DATE":"2020-10-24","MEAN_MOTION":"15.06403843","BSTAR":"-0.00024739000000","TIME_SYSTEM":"UTC","EPOCH":"2022-07-23T20:34:20.672544","SITE":"AFETR","REV_AT_EPOCH":"9699","APOAPSIS":"548.232","FILE":"3520602","REF_FRAME":"TEME","EPHEMERIS_TYPE":"0","PERIAPSIS":"546.172","MEAN_MOTION_DDOT":"0.0000000000000","CENTER_NAME":"EARTH","MEAN_ANOMALY":"278.1541","RA_OF_ASC_NODE":"149.0147","TLE_LINE1":"1 46754U 20074R   22204.85718371 -.00003965  00000-0 -24739-3 0  9992","TLE_LINE2":"2 46754  53.0550 149.0147 0001487  81.9616 278.1541 15.06403843 96998","PERIOD":"95.592","MEAN_ELEMENT_THEORY":"SGP4","ECCENTRICITY":"0.00014870","MEAN_MOTION_DOT":"-0.00003965"},{"APOAPSIS":"548.644","FILE":"3520602","REF_FRAME":"TEME","EPOCH":"2022-07-23T20:41:38.664384","SITE":"AFETR","REV_AT_EPOCH":"9692","MEAN_MOTION":"15.06391490","TIME_SYSTEM":"UTC","BSTAR":"-0.00006941800000","ECCENTRICITY":"0.00020280","MEAN_MOTION_DOT":"-0.00001315","MEAN_ANOMALY":"300.1974","TLE_LINE1":"1 46755U 20074S   22204.86225306 -.00001315  00000-0 -69418-4 0  9996","RA_OF_ASC_NODE":"153.9934","TLE_LINE2":"2 46755  53.0528 153.9934 0002028  59.9216 300.1974 15.06391490 96928","MEAN_ELEMENT_THEORY":"SGP4","PERIOD":"95.593","EPHEMERIS_TYPE":"0","MEAN_MOTION_DDOT":"0.0000000000000","PERIAPSIS":"545.835","CENTER_NAME":"EARTH","ARG_OF_PERICENTER":"59.9216","RCS_SIZE":"LARGE","NORAD_CAT_ID":"46755","OBJECT_ID":"2020-074S","INCLINATION":"53.0528","COUNTRY_CODE":"US","GP_ID":"208736730","SEMIMAJOR_AXIS":"6925.375","ELEMENT_SET_NO":"999","OBJECT_TYPE":"PAYLOAD","LAUNCH_DATE":"2020-10-24","CLASSIFICATION_TYPE":"U","OBJECT_NAME":"STARLINK-1924","DECAY_DATE":null},{"LAUNCH_DATE":"2020-10-24","OBJECT_TYPE":"PAYLOAD","ELEMENT_SET_NO":"999","CLASSIFICATION_TYPE":"U","DECAY_DATE":null,"OBJECT_NAME":"STARLINK-1925","RCS_SIZE":"LARGE","NORAD_CAT_ID":"46756","ARG_OF_PERICENTER":"59.8660","INCLINATION":"53.0541","OBJECT_ID":"2020-074T","SEMIMAJOR_AXIS":"6925.378","GP_ID":"208682893","COUNTRY_CODE":"US","MEAN_MOTION_DOT":"0.00000665","ECCENTRICITY":"0.00018890","MEAN_ELEMENT_THEORY":"SGP4","PERIOD":"95.593","TLE_LINE2":"2 46756  53.0541 155.7520 0001889  59.8660 300.2516 15.06390499 96898","TLE_LINE1":"1 46756U 20074T   22204.56005613  .00000665  00000-0  63574-4 0  9993","RA_OF_ASC_NODE":"155.7520","MEAN_ANOMALY":"300.2516","CENTER_NAME":"EARTH","MEAN_MOTION_DDOT":"0.0000000000000","PERIAPSIS":"545.934","EPHEMERIS_TYPE":"0","REF_FRAME":"TEME","APOAPSIS":"548.551","FILE":"3520336","SITE":"AFETR","REV_AT_EPOCH":"9689","EPOCH":"2022-07-23T13:26:28.849632","TIME_SYSTEM":"UTC","BSTAR":"0.00006357400000","MEAN_MOTION":"15.06390499"}];
